EPOCH,MEAN_MOTION,ECCENTRICITY,INCLINATION,RA_OF_ASC_NODE,ARG_OF_PERICENTER,MEAN_ANOMALY,BSTAR,MEAN_MOTION_DOT,MEAN_MOTION_DDOT,SEMIMAJOR_AXIS,PERIOD,APOAPSIS,PERIAPSIS,OBJECT_TYPE,RCS_SIZE,COUNTRY_CODE,LAUNCH_DATE,SITE,FILE
2021-10-31T12:51:02.436768,15.06400361,0.0001333,53.0549,325.0946,77.3559,282.7579,0.00011624,0.0000145,0,6925.347,95.592,548.136,546.289,PAYLOAD,LARGE,US,2020,AFETR,3194431
2021-10-31T18:28:36.967584,15.05596451,0.0001274,52.999,324.0455,72.2272,287.8855,0.00018758,0.00002456,0,6927.812,95.643,550.56,548.795,PAYLOAD,LARGE,US,2020,AFETR,3194950
2021-11-01T03:57:30.578400,15.69747933,0.0005331,53.0532,263.144,42.5168,317.6261,0.00015995,0.00018873,0,6737.755,91.734,363.212,356.028,PAYLOAD,LARGE,US,2020,AFETR,3195229
2021-10-31T11:20:47.765184,15.06400901,0.0001376,53.0553,325.3901,77.2879,282.8264,7.19E-06,-0.00000174,0,6925.346,95.592,548.164,546.258,PAYLOAD,LARGE,US,2020,AFETR,3194431
2021-10-31T18:30:44.111232,15.06407995,0.0001285,53.0538,324.0489,74.5638,285.5492,0.0002391,0.00003282,0,6925.324,95.592,548.079,546.299,PAYLOAD,LARGE,US,2020,AFETR,3194950
2021-10-31T18:35:20.537664,15.07164861,0.0001291,53.0553,324.034,101.5029,258.6105,-0.002129,-0.00032511,0,6923.005,95.544,545.764,543.977,PAYLOAD,LARGE,US,2020,AFETR,3194950
2021-11-01T03:26:48.446592,15.06398201,0.0001234,53.0544,322.3678,80.5932,279.5197,0.00013352,0.00001708,0,6925.354,95.592,548.074,546.364,PAYLOAD,LARGE,US,2020,AFETR,3195232
2021-11-01T00:10:25.790880,15.06389677,0.0001499,53.0545,322.9783,67.6164,292.4983,0.00006145,0.00000634,0,6925.38,95.593,548.283,546.207,PAYLOAD,LARGE,US,2020,AFETR,3195233
2021-10-31T16:41:20.409504,15.80693503,0.0001,53.0544,301.5652,81.4479,278.6655,0.0013898,0.00280407,0,6706.615,91.099,329.151,327.81,PAYLOAD,LARGE,US,2020,AFETR,3194950
2021-10-31T18:46:39.218304,15.06396225,0.0001224,53.0543,323.9932,82.7935,277.3193,-0.000043554,-0.0000093,0,6925.36,95.592,548.073,546.377,PAYLOAD,LARGE,US,2020,AFETR,3194950
2021-10-31T21:55:04.610784,15.06400543,0.0001235,53.055,303.4039,74.6045,285.508,0.00012775,0.00001622,0,6925.347,95.592,548.067,546.357,PAYLOAD,LARGE,US,2020,AFETR,3194950
2021-11-01T04:15:10.792800,15.87540577,0.0001993,53.0507,272.1663,76.5841,283.5406,0.0019474,0.00562612,0,6687.318,90.706,310.515,307.85,PAYLOAD,LARGE,US,2020,AFETR,3195187
2021-10-31T17:13:46.731072,15.06394211,0.0001441,53.0557,304.2844,88.6303,271.4851,0.000093031,0.00001104,0,6925.366,95.593,548.229,546.233,PAYLOAD,LARGE,US,2020,AFETR,3194950
2021-10-31T17:24:23.447232,15.06395198,0.0001428,53.0556,304.2555,74.5419,285.5728,0.000093417,0.0000111,0,6925.363,95.592,548.217,546.239,PAYLOAD,LARGE,US,2020,AFETR,3194950
2021-10-31T06:47:27.364704,15.06399473,0.0001607,53.0549,306.244,80.2028,279.9142,0.00010423,0.00001271,0,6925.35,95.592,548.328,546.102,PAYLOAD,LARGE,US,2020,AFETR,3194431
2021-11-01T04:18:24.662304,15.67990405,0.0005734,53.0494,236.1268,289.0422,70.9973,-0.000082267,-0.00009865,0,6742.789,91.837,368.52,360.788,PAYLOAD,LARGE,US,2020,AFETR,3195212
2021-10-31T16:47:13.660224,15.06399017,0.0001343,53.0546,304.3554,71.922,288.1916,0.00011218,0.0000139,0,6925.352,95.592,548.147,546.286,PAYLOAD,LARGE,US,2020,AFETR,3194950
2021-10-31T16:57:51.157440,15.06388957,0.0001365,53.0551,304.3254,65.295,294.8181,0.000054223,0.00000526,0,6925.382,95.593,548.193,546.302,PAYLOAD,LARGE,US,2020,AFETR,3194950
2021-10-31T17:29:41.691264,15.06403854,0.0001503,53.0535,304.2412,71.1972,288.918,0.00013466,0.00001725,0,6925.337,95.592,548.243,546.161,PAYLOAD,LARGE,US,2020,AFETR,3194950
2021-10-31T23:57:08.750880,15.0642131,0.0001404,53.0553,303.0191,81.3594,278.7554,-0.00016193,-0.00002694,0,6925.283,95.591,548.121,546.176,PAYLOAD,LARGE,US,2020,AFETR,3195229
2021-11-01T02:15:09.038304,15.06402871,0.00015,53.0561,302.5828,70.1917,289.9234,0.000061489,0.00000635,0,6925.34,95.592,548.244,546.166,PAYLOAD,LARGE,US,2020,AFETR,3195229
2021-10-31T16:36:37.132416,15.06396817,0.0001322,53.0548,304.3938,81.8911,278.2228,0.000051228,0.00000482,0,6925.358,95.592,548.139,546.308,PAYLOAD,LARGE,US,2020,AFETR,3194950
2021-11-01T03:42:41.905152,15.73210506,0.0004921,53.0312,242.2563,356.0975,4.0004,0.000014947,0.00001474,0,6727.865,91.533,353.041,346.419,PAYLOAD,LARGE,US,2020,AFETR,3195230
2021-10-31T16:52:32.399328,15.06400667,0.0001334,53.0548,304.3423,76.4323,283.6815,0.000093709,0.00001115,0,6925.347,95.592,548.135,546.288,PAYLOAD,LARGE,US,2020,AFETR,3195234
2021-10-31T17:58:53.336352,15.06395769,0.0001515,53.0562,324.1306,74.105,286.0106,0.000097063,0.00001164,0,6925.362,95.592,548.276,546.177,PAYLOAD,LARGE,US,2020,AFETR,3194950
2021-10-31T12:32:27.900096,15.06399638,0.0001237,53.0543,345.1563,72.3867,287.7257,0.00013478,0.00001727,0,6925.35,95.592,548.071,546.358,PAYLOAD,LARGE,US,2020,AFETR,3194728
2021-10-31T20:08:54.902976,15.06407173,0.0001456,53.0562,343.74,92.9376,267.1779,0.000091418,0.00001081,0,6925.327,95.592,548.2,546.183,PAYLOAD,LARGE,US,2020,AFETR,3194950
2021-10-31T10:09:08.671392,15.06404409,0.0001447,53.0541,305.6079,76.4425,283.6725,0.00010419,0.00001271,0,6925.335,95.592,548.202,546.198,PAYLOAD,LARGE,US,2020,AFETR,3194191
2021-10-31T17:03:09.023040,15.06398822,0.0001304,53.0556,304.3229,77.8882,282.2253,0.000093901,0.00001117,0,6925.352,95.592,548.12,546.314,PAYLOAD,LARGE,US,2020,AFETR,3194950
2021-10-31T04:01:41.932416,6.53018877,0.4403769,63.9402,52.2894,8.8758,356.9238,0.035107,0.00090315,0,12090.697,220.514,11037.026,388.099,DEBRIS,SMALL,CIS,2009,TTMTR,3194431
2021-10-31T11:13:40.523232,1.00270696,0.0003298,6.3814,344.5418,233.7832,126.0829,0,-0.00000317,0,42165.037,1436.113,35800.808,35772.996,PAYLOAD,LARGE,JPN,2020,FRGUI,3194950
2021-10-31T19:33:17.899200,1.00267935,0.0000998,0.0249,97.7179,35.3358,328.8657,0,-0.00000337,0,42165.811,1436.152,35791.884,35783.468,PAYLOAD,LARGE,SKOR,2020,FRGUI,3194950
2021-10-31T16:50:29.494464,2.40050273,0.7173392,6.0502,41.3954,346.9453,1.5529,0.0095647,0.0001981,0,23561.361,599.874,34084.714,281.738,DEBRIS,LARGE,FR,2020,FRGUI,3195282
2021-10-31T15:33:14.301216,2.3139901,0.7248846,5.8397,47.4728,337.036,2.6497,0.0010139,0.00002269,0,24145.017,622.302,35269.232,264.531,ROCKET BODY,LARGE,FR,2020,FRGUI,3194950
2021-10-31T21:09:18.506016,15.30968746,0.0005841,35.0137,105.2294,133.4571,351.7737,0.00020843,0.00006367,0,6851.058,94.058,476.924,468.921,PAYLOAD,LARGE,PRC,2020,XSC,3194950
2021-10-31T21:09:07.101216,15.30961234,0.0006582,35.014,105.2542,131.1164,354.0394,0.00016049,0.00004891,0,6851.08,94.059,477.454,468.436,PAYLOAD,LARGE,PRC,2020,XSC,3194950
2021-11-01T04:18:32.000256,15.30945129,0.0004928,35.0145,103.3443,195.4725,143.017,0.00016678,0.00005081,0,6851.128,94.06,476.369,469.617,PAYLOAD,LARGE,PRC,2020,XSC,3195345
2021-11-01T02:22:47.864640,15.33765878,0.000528,35.0026,93.481,188.4543,171.6087,0.00052358,0.00017561,0,6842.726,93.887,468.204,460.978,ROCKET BODY,LARGE,PRC,2020,XSC,3195327
2021-10-31T21:09:00.190944,15.30959699,0.000607,35.0138,105.2185,140.4998,344.662,0.00016023,0.00004883,0,6851.085,94.059,477.108,468.791,PAYLOAD,LARGE,PRC,2020,XSC,3195313
2021-10-31T01:35:33.906624,2.00596799,0.6913173,63.0228,150.2403,294.6301,326.4303,0,0.00000288,0,26557.418,717.858,38538.885,1819.68,PAYLOAD,LARGE,CIS,2020,PKMTR,3194431
2021-10-29T23:17:48.292512,1.99832437,0.6981371,63.0469,148.4127,294.8919,10.12,0,-0.00000948,0,26625.096,720.604,38834.929,1658.994,ROCKET BODY,LARGE,CIS,2020,PKMTR,3192905
2021-10-31T18:24:39.978432,15.6521813,0.0007038,51.6427,359.1896,53.0541,307.1098,0.0006901,0.00069862,0,6750.748,92,377.365,367.862,PAYLOAD,SMALL,US,1998,TTMTR,3195338
2021-10-31T21:16:56.922816,15.628529,0.0007144,51.6381,1.3677,53.4007,306.7644,0.00051586,0.00047271,0,6757.558,92.139,384.25,374.595,TBA,SMALL,TBD,1998,TTMTR,3194950
2021-10-31T21:37:13.893600,15.6068462,0.0006337,51.6391,4.4655,38.0805,322.0635,0.00043181,0.00036209,0,6763.815,92.267,389.967,381.394,PAYLOAD,SMALL,US,1998,TTMTR,3195298
2021-10-31T16:26:20.638176,15.7186738,0.0007441,51.6365,351.7413,44.8452,315.3146,0.0007643,0.00102298,0,6731.697,91.611,358.571,348.553,TBA,SMALL,TBD,1998,TTMTR,3194950
2021-11-01T04:21:55.189728,15.88878217,0.0010419,51.6317,341.4587,42.4994,317.6816,0.0014899,0.00431146,0.000079745,6683.564,90.63,312.392,298.465,PAYLOAD,SMALL,US,1998,TTMTR,3195333
2021-10-31T13:05:37.669632,15.84022396,0.0009244,51.6304,341.6721,42.2757,317.8958,0.00093101,0.00218625,0,6697.216,90.908,325.272,312.89,PAYLOAD,SMALL,US,1998,TTMTR,3194821
2021-10-31T20:38:07.189152,15.63571091,0.0005397,51.6424,0.5489,75.5942,284.5651,0.00051279,0.00048322,0,6755.488,92.097,380.999,373.707,PAYLOAD,SMALL,US,1998,TTMTR,3194950
2021-10-31T17:51:48.684672,15.71954707,0.0007477,51.6358,352.1314,42.6582,317.4996,0.00085805,0.00115532,0,6731.448,91.606,358.346,348.28,PAYLOAD,SMALL,BEL,1998,TTMTR,3194950
2021-10-31T17:39:17.860896,15.57891979,0.0007299,51.6419,10.1884,60.0237,300.1479,0.00036619,0.00027485,0,6771.896,92.433,398.704,388.818,PAYLOAD,SMALL,US,1998,TTMTR,3194950
2021-10-31T13:27:14.082624,15.54055364,0.0005492,51.6416,18.6952,58.234,301.9185,0.00019747,0.00012583,0,6783.037,92.661,408.627,401.177,DEBRIS,LARGE,JPN,1998,TTMTR,3194431
2021-11-01T03:50:50.637120,13.17909025,0.000425,82.5523,251.6016,336.8014,23.2916,0.00023371,0.00000103,0,7570.854,109.264,1195.937,1189.502,DEBRIS,MEDIUM,CIS,1991,PKMTR,3195163
2021-10-31T13:50:42.716256,13.14028398,0.0015841,82.5661,256.0465,145.6664,214.5484,-0.00053323,-0.00000184,0,7585.753,109.587,1219.634,1195.601,DEBRIS,MEDIUM,CIS,1991,PKMTR,3194431
2021-10-31T14:18:17.052480,13.15583706,0.0011119,82.5553,254.0621,94.879,265.3601,-0.00044405,-0.00000155,0,7579.773,109.457,1210.066,1193.21,DEBRIS,MEDIUM,CIS,1991,PKMTR,3194683
2021-11-01T04:40:42.575808,13.20395246,0.0027083,82.5749,251.1721,357.3153,2.7822,0.000087433,0.00000048,0,7561.348,109.058,1203.691,1162.734,DEBRIS,MEDIUM,CIS,1991,PKMTR,3195175
